[{"OBJECT_NAME":"STARLINK-30086","OBJECT_ID":"2023-056M","EPOCH":"2026-03-09T22:00:01.999584","MEAN_MOTION":15.26715467,"ECCENTRICITY":0.00015248,"INCLINATION":42.9996,"RA_OF_ASC_NODE":207.424,"ARG_OF_PERICENTER":269.6985,"MEAN_ANOMALY":184.367,"EPHEMERIS_TYPE":0,"CLASSIFICATION_TYPE":"U","NORAD_CAT_ID":56297,"ELEMENT_SET_NO":999,"REV_AT_EPOCH":578,"BSTAR":0.00171194,"MEAN_MOTION_DOT":0.00045913,"MEAN_MOTION_DDOT":0},{"OBJECT_NAME":"CZ-4C R\/B","OBJECT_ID":"2024-089B","EPOCH":"2026-03-09T16:45:24.409152","MEAN_MOTION":15.30115456,"ECCENTRICITY":0.00763424,"INCLINATION":97.7122,"RA_OF_ASC_NODE":107.3872,"ARG_OF_PERICENTER":235.0262,"MEAN_ANOMALY":124.3793,"EPHEMERIS_TYPE":0,"CLASSIFICATION_TYPE":"U","NORAD_CAT_ID":59729,"ELEMENT_SET_NO":999,"REV_AT_EPOCH":10143,"BSTAR":0.00030010198,"MEAN_MOTION_DOT":9.476e-5,"MEAN_MOTION_DDOT":0}]
